     2.11           G: GLONASS NAV DATA                     RINEX VERSION / TYPE
LEICA GEO OFFICE 8.4                    2-7-20 14:22        PGM / RUN BY / DATE
                                                            END OF HEADER
19 20  4 27 11 45  0.0-9.065773338079D-05-9.094947017729D-13-3.411000000000D+04
   -2.511443212891D+04-5.139865875244D-01-9.313225746155D-10 0.000000000000D+00
    2.371602539063D+03 2.622117996216D-01-1.862645149231D-09 3.000000000000D+00
    3.797222167969D+03-3.562351226807D+00-1.862645149231D-09 0.000000000000D+00
20 20  4 27  8 15  0.0-4.102084785700D-04-9.094947017729D-13-4.548000000000D+04
    1.449434667969D+04-1.249666213989D-01-9.313225746155D-10 0.000000000000D+00
    2.063352490234D+04-5.468568801880D-01 2.793967723846D-09 2.000000000000D+00
    3.679102050781D+03 3.569703102112D+00 1.862645149231D-09 0.000000000000D+00
20 20  4 27  8 45  0.0-4.102112725377D-04-9.094947017729D-13-4.500000000000D+04
    1.365669970703D+04-8.252048492432D-01 0.000000000000D+00 0.000000000000D+00
    1.911691015625D+04-1.098906517029D+00 3.725290298462D-09 2.000000000000D+00
    9.878652343750D+03 3.273846626282D+00 9.313225746155D-10 0.000000000000D+00
20 20  4 27  9 15  0.0-4.102140665054D-04-9.094947017729D-13-4.320000000000D+04
    1.148680468750D+04-1.586295127869D+00 0.000000000000D+00 0.000000000000D+00
    1.683454296875D+04-1.390687942505D+00 4.656612873077D-09 2.000000000000D+00
    1.531243554688D+04 2.724459648132D+00 0.000000000000D+00 0.000000000000D+00
20 20  4 27  9 45  0.0-4.102159291506D-04-9.094947017729D-13-4.140000000000D+04
    7.980059570313D+03-2.290853500366D+00 9.313225746155D-10 0.000000000000D+00
    1.427855566406D+04-1.403877258301D+00 3.725290298462D-09 2.000000000000D+00
    1.956006738281D+04 1.964550018311D+00 0.000000000000D+00 0.000000000000D+00
20 20  4 27 10 15  0.0-4.102205857635D-04-9.094947017729D-13-3.960000000000D+04
    3.341512695313D+03-2.826581001282D+00 1.862645149231D-09 0.000000000000D+00
    1.193115039063D+04-1.167540550232D+00 3.725290298462D-09 2.000000000000D+00
    2.229381250000D+04 1.053354263306D+00 0.000000000000D+00 0.000000000000D+00
20 20  4 27 10 45  0.0-4.102224484086D-04-9.094947017729D-13-3.780000000000D+04
   -2.040350097656D+03-3.104805946350D+00 1.862645149231D-09 0.000000000000D+00
    1.018324023438D+04-7.524738311768D-01 1.862645149231D-09 2.000000000000D+00
    2.330369140625D+04 6.160354614258D-02-9.313225746155D-10 0.000000000000D+00
20 20  4 27 11 15  0.0-4.102233797312D-04 0.000000000000D+00-3.600000000000D+04
   -7.650082031250D+03-3.075100898743D+00 1.862645149231D-09 0.000000000000D+00
    9.269744140625D+03-2.586402893066D-01 9.313225746155D-10 2.000000000000D+00
    2.251325634766D+04-9.340305328369D-01-9.313225746155D-10 0.000000000000D+00
20 20  4 27 11 45  0.0-4.102252423763D-04 0.000000000000D+00-3.420000000000D+04
   -1.292266992188D+04-2.733593940735D+00 9.313225746155D-10 0.000000000000D+00
    9.232148437500D+03 2.021331787109D-01 0.000000000000D+00 2.000000000000D+00
    1.998498730469D+04-1.856848716736D+00-1.862645149231D-09 0.000000000000D+00
20 20  4 27 12 15  0.0-4.102271050215D-04 0.000000000000D+00-3.240000000000D+04
   -1.732915722656D+04-2.123682975769D+00 0.000000000000D+00 0.000000000000D+00
    9.914358398438D+03 5.253162384033D-01-9.313225746155D-10 2.000000000000D+00
    1.591505957031D+04-2.635942459106D+00-1.862645149231D-09 0.000000000000D+00
20 20  4 27 12 45  0.0-4.102280363441D-04 0.000000000000D+00-3.060000000000D+04
   -2.045656250000D+04-1.329073905945D+00 0.000000000000D+00 0.000000000000D+00
    1.099230224609D+04 6.315050125122D-01-9.313225746155D-10 2.000000000000D+00
    1.061800341797D+04-3.211544990540D+00-1.862645149231D-09 0.000000000000D+00
20 20  4 27 13 15  0.0-4.102289676666D-04 0.000000000000D+00-2.880000000000D+04
   -2.206915039063D+04-4.603166580200D-01-1.862645149231D-09 0.000000000000D+00
    1.203224804688D+04 4.800405502319D-01-9.313225746155D-10 2.000000000000D+00
    4.502459472656D+03-3.539514541626D+00-1.862645149231D-09 0.000000000000D+00
21 20  4 27  0 15  0.0-1.206332817674D-04-2.728484105319D-12-7.452000000000D+04
   -1.207571679688D+04 2.873413085938D+00-3.725290298462D-09 0.000000000000D+00
   -7.581095703125D+03-4.046010971069D-01-1.862645149231D-09 4.000000000000D+00
    2.115528320313D+04 1.493391990662D+00 0.000000000000D+00 0.000000000000D+00
21 20  4 27  0 45  0.0-1.206379383802D-04-2.728484105319D-12-7.380000000000D+04
   -6.726873046875D+03 3.017430305481D+00-3.725290298462D-09 0.000000000000D+00
   -8.766659667969D+03-9.123373031616D-01-9.313225746155D-10 4.000000000000D+00
    2.299122998047D+04 5.332670211792D-01-9.313225746155D-10 0.000000000000D+00
21 20  4 27  1 15  0.0-1.206416636705D-04-2.728484105319D-12-7.200000000000D+04
   -1.399414062500D+03 2.852306365967D+00-2.793967723846D-09 0.000000000000D+00
   -1.083044677734D+04-1.361890792847D+00 0.000000000000D+00 4.000000000000D+00
    2.305007617188D+04-4.683599472046D-01-9.313225746155D-10 0.000000000000D+00
21 20  4 27 10 15  0.0-1.207282766700D-04-2.728484105319D-12-3.903000000000D+04
    2.025441796875D+04-1.204896926880D+00 9.313225746155D-10 0.000000000000D+00
    1.196453027344D+04-6.554460525513D-01 3.725290298462D-09 4.000000000000D+00
    9.886056640625D+03 3.259678840637D+00 9.313225746155D-10 0.000000000000D+00
21 20  4 27 10 45  0.0-1.207320019603D-04-2.728484105319D-12-3.780000000000D+04
    1.734204248047D+04-2.012868881226D+00 1.862645149231D-09 0.000000000000D+00
    1.078520605469D+04-6.128377914429D-01 3.725290298462D-09 4.000000000000D+00
    1.529590673828D+04 2.712259292603D+00 0.000000000000D+00 0.000000000000D+00
21 20  4 27 11 15  0.0-1.207366585732D-04-2.728484105319D-12-3.600000000000D+04
    1.310651562500D+04-2.657590866089D+00 2.793967723846D-09 0.000000000000D+00
    9.896441894531D+03-3.414020538330D-01 3.725290298462D-09 4.000000000000D+00
    1.952409033203D+04 1.955218315125D+00 0.000000000000D+00 0.000000000000D+00
21 20  4 27 11 45  0.0-1.207422465086D-04-2.728484105319D-12-3.420000000000D+04
    7.927472167969D+03-3.049008369446D+00 2.793967723846D-09 0.000000000000D+00
    9.651165039063D+03 8.741378784180D-02 2.793967723846D-09 4.000000000000D+00
    2.224371435547D+04 1.046940803528D+00 0.000000000000D+00 0.000000000000D+00
21 20  4 27 12 15  0.0-1.207469031215D-04-2.728484105319D-12-3.240000000000D+04
    2.314311035156D+03-3.134958267212D+00 2.793967723846D-09 0.000000000000D+00
    1.024592919922D+04 5.738439559937D-01 9.313225746155D-10 4.000000000000D+00
    2.324425488281D+04 5.750560760498D-02-9.313225746155D-10 0.000000000000D+00
21 20  4 27 12 45  0.0-1.207515597343D-04-2.728484105319D-12-3.060000000000D+04
   -3.170596679688D+03-2.909542083740D+00 2.793967723846D-09 0.000000000000D+00
    1.168484375000D+04 1.006939888000D+00 0.000000000000D+00 4.000000000000D+00
    2.244787011719D+04-9.366874694824D-01-9.313225746155D-10 0.000000000000D+00
21 20  4 27 13 15  0.0-1.207562163472D-04-2.728484105319D-12-2.880000000000D+04
   -7.997119140625D+03-2.413959503174D+00 9.313225746155D-10 0.000000000000D+00
    1.377653808594D+04 1.283617019653D+00 0.000000000000D+00 4.000000000000D+00
    1.991555029297D+04-1.858778953552D+00-1.862645149231D-09 0.000000000000D+00
22 20  4 27  0 15  0.0 1.545064151287D-06-1.818989403546D-12-7.455000000000D+04
   -2.435686279297D+04 1.029348373413D+00-2.793967723846D-09 0.000000000000D+00
    7.904531250000D+02 5.333232879639D-02-2.793967723846D-09-3.000000000000D+00
    7.316871093750D+03 3.434106826782D+00 9.313225746155D-10 0.000000000000D+00
22 20  4 27  0 45  0.0 1.540407538414D-06-1.818989403546D-12-7.380000000000D+04
   -2.179692089844D+04 1.782829284668D+00-3.725290298462D-09 0.000000000000D+00
    5.565810546875D+02-3.449296951294D-01-1.862645149231D-09-3.000000000000D+00
    1.313291162109D+04 2.985986709595D+00 9.313225746155D-10 0.000000000000D+00
22 20  4 27  1 15  0.0 1.535750925541D-06-1.818989403546D-12-7.200000000000D+04
   -1.808036865234D+04 2.301456451416D+00-4.656612873077D-09 0.000000000000D+00
   -5.399863281250D+02-8.900318145752D-01-9.313225746155D-10-3.000000000000D+00
    1.792714648438D+04 2.306346893311D+00 0.000000000000D+00 0.000000000000D+00
22 20  4 27  1 45  0.0 1.532025635242D-06-1.818989403546D-12-7.020000000000D+04
   -1.368758447266D+04 2.528499603271D+00-4.656612873077D-09 0.000000000000D+00
   -2.674294433594D+03-1.479354858398D+00 0.000000000000D+00-3.000000000000D+00
    2.132885986328D+04 1.448993682861D+00 0.000000000000D+00 0.000000000000D+00
22 20  4 27  2 15  0.0 1.528300344944D-06-1.818989403546D-12-6.840000000000D+04
   -9.159634765625D+03 2.454054832458D+00-3.725290298462D-09 0.000000000000D+00
   -5.823747070313D+03-1.999097824097D+00 0.000000000000D+00-3.000000000000D+00
    2.307713867188D+04 4.812669754028D-01-9.313225746155D-10 0.000000000000D+00
22 20  4 27  2 45  0.0 1.524575054646D-06-9.094947017729D-13-6.660000000000D+04
   -5.012117187500D+03 2.115767478943D+00-2.793967723846D-09 0.000000000000D+00
   -9.765409179688D+03-2.343667030334D+00 9.313225746155D-10-3.000000000000D+00
    2.304035986328D+04-5.214920043945D-01-9.313225746155D-10 0.000000000000D+00
22 20  4 27  3 15  0.0 1.521781086922D-06-9.094947017729D-13-6.480000000000D+04
   -1.654894531250D+03 1.591685295105D+00-9.313225746155D-10 0.000000000000D+00
   -1.410732226563D+04-2.433537483215D+00 9.313225746155D-10-3.000000000000D+00
    2.122525390625D+04-1.481902122498D+00-1.862645149231D-09 0.000000000000D+00
22 20  4 27 12 15  0.0 1.469627022743D-06-1.818989403546D-12-3.159000000000D+04
    1.983214160156D+04-2.136918067932D+00 2.793967723846D-09 0.000000000000D+00
    3.547385742188D+03 2.024717330933D-01 2.793967723846D-09-3.000000000000D+00
    1.556574365234D+04 2.688632965088D+00 0.000000000000D+00 0.000000000000D+00
